OBJECT_NAME,OBJECT_ID,EPOCH,MEAN_MOTION,ECCENTRICITY,INCLINATION,RA_OF_ASC_NODE,ARG_OF_PERICENTER,MEAN_ANOMALY,EPHEMERIS_TYPE,CLASSIFICATION_TYPE,NORAD_CAT_ID,ELEMENT_SET_NO,REV_AT_EPOCH,BSTAR,MEAN_MOTION_DOT,MEAN_MOTION_DDOT
DMSP 5D-3 F16 (USA 172),2003-048A,2026-06-17T04:04:25.302720,14.14483195,.0007757,98.9890,191.9980,140.2834,306.9694,0,U,28054,999,16948,.13945E-4,-.19E-6,0
METEOSAT-9 (MSG-2),2005-049B,2026-06-16T18:21:52.410816,1.00271877,.0001615,9.3608,54.1728,343.7501,188.2137,0,U,28912,999,699,0,.116E-5,0
DMSP 5D-3 F17 (USA 191),2006-050A,2026-06-17T04:04:21.761184,14.14993061,.0011169,98.7378,174.7401,59.4497,300.7777,0,U,29522,999,1242,.17673E-4,-.9E-7,0
FENGYUN 3A,2008-026A,2026-06-16T18:22:10.191072,14.19571060,.0009574,98.6883,108.6064,124.7763,235.4315,0,U,32958,999,93534,.44318E-4,.5E-6,0
GOES 14,2009-033A,2026-06-16T18:49:22.482336,1.00110913,.0001742,1.6895,83.0460,11.3319,235.0763,0,U,35491,999,658,0,-.293E-5,0
DMSP 5D-3 F18 (USA 210),2009-057A,2026-06-17T05:04:58.713888,14.14896735,.0009895,98.9037,148.9808,249.4531,110.5580,0,U,35951,999,85959,.13316E-3,.213E-5,0
EWS-G2 (GOES 15),2010-008A,2026-06-16T22:35:24.010368,1.00275936,.0005411,1.2775,82.8648,42.2478,182.6632,0,U,36411,999,5963,0,.14E-6,0
COMS 1,2010-032A,2026-06-16T22:48:42.214176,0.99162509,.0011488,4.8049,75.3571,11.7446,234.6783,0,U,36744,999,5108,0,.55E-6,0
FENGYUN 3B,2010-059A,2026-06-17T05:41:28.086432,14.14840646,.0021908,98.9617,214.2519,183.7669,258.0860,0,U,37214,999,80743,-.96994E-4,-.233E-5,0
SUOMI NPP,2011-061A,2026-06-17T04:47:22.962912,14.19517331,.0001534,98.7953,109.0755,6.8012,353.3185,0,U,37849,999,75844,.42621E-4,.45E-6,0
METEOSAT-10 (MSG-3),2012-035B,2026-06-15T21:37:03.141984,1.00276584,.00014525,4.6688,61.0268,328.0735,199.6782,0,U,38552,999,5084,0,-.6E-7,0
METOP-B,2012-049A,2026-06-17T04:33:03.597408,14.21432760,.0002239,98.6505,219.6888,19.7345,340.3919,0,U,38771,999,71326,.60599E-4,.89E-6,0
INSAT-3D,2013-038B,2026-06-16T18:45:45.328032,1.00269313,.000056,1.9255,82.5442,311.3198,282.1305,0,U,39216,999,4707,0,-.343E-5,0
FENGYUN 3C,2013-052A,2026-06-17T04:26:37.976064,14.15754974,.001526,98.4987,142.0600,27.6290,332.5693,0,U,39260,999,65856,.52095E-4,.61E-6,0
METEOR-M 2,2014-037A,2026-06-17T05:11:01.819392,14.21461639,.000677,98.5110,143.9536,44.4406,315.7314,0,U,40069,999,61932,.12057E-3,.222E-5,0
HIMAWARI-8,2014-060A,2026-06-16T18:49:00.018336,1.00271710,.0000992,0.0158,359.9150,89.2732,238.7759,0,U,40267,999,4275,0,-.278E-5,0
FENGYUN 2G,2014-090A,2026-06-16T18:37:16.141728,1.00272344,.0004095,5.6375,72.8180,156.3445,54.8771,0,U,40367,999,4199,0,-.308E-5,0
METEOSAT-11 (MSG-4),2015-034A,2026-06-16T18:11:38.091264,1.00280240,.0001751,3.2002,71.1126,11.1942,105.2805,0,U,40732,999,721,0,.61E-6,0
ELEKTRO-L 2,2015-074A,2026-06-16T15:18:31.243968,1.00270425,.0000972,6.6931,70.5258,242.2635,167.2330,0,U,41105,999,3850,0,-.124E-5,0
SENTINEL-3A,2016-011A,2026-06-17T03:30:51.044832,14.26739977,.0001402,98.6249,235.5307,102.1879,257.9459,0,U,41335,999,53805,.53185E-4,.85E-6,0
INSAT-3DR,2016-054A,2026-06-16T22:47:58.970112,1.00270883,.0010603,0.1060,86.3723,187.4701,47.3357,0,U,41752,999,3581,0,-.8E-6,0
HIMAWARI-9,2016-064A,2026-06-16T18:49:00.018336,1.00270813,.0000894,0.0197,277.3882,213.8870,196.7861,0,U,41836,999,3520,0,-.277E-5,0
GOES 16,2016-071A,2026-06-16T22:46:56.043264,1.00270988,.000022,0.3411,85.5155,306.0896,110.6458,0,U,41866,999,3510,0,-.94E-6,0
FENGYUN 4A,2016-077A,2026-06-16T18:44:07.984608,1.00268694,.0008712,2.3211,80.2786,153.4047,76.1551,0,U,41882,999,3492,0,-.361E-5,0
CYGFM05,2016-078A,2026-06-16T14:27:15.431616,15.56650505,.0006927,34.9568,264.4637,145.3362,214.7815,0,U,41884,999,52866,.25356E-3,.18684E-3,0
CYGFM04,2016-078B,2026-06-16T13:47:32.758080,15.61485848,.0006598,34.9314,232.3673,189.8115,170.2483,0,U,41885,999,52890,.26669E-3,.23651E-3,0
CYGFM02,2016-078C,2026-06-16T13:50:13.214976,15.64470617,.0007626,34.9393,226.9084,190.6958,169.3607,0,U,41886,999,52907,.27656E-3,.27611E-3,0
CYGFM01,2016-078D,2026-06-16T23:25:13.586880,15.57342309,.0006767,34.9396,263.0479,143.1160,217.0031,0,U,41887,999,52867,.29036E-3,.21975E-3,0
CYGFM08,2016-078E,2026-06-16T14:46:39.125568,15.59994653,.0008283,34.9423,245.0304,171.8547,188.2313,0,U,41888,999,52888,.26707E-3,.22367E-3,0
CYGFM07,2016-078G,2026-06-16T13:47:51.837792,15.60091379,.000703,34.9435,233.6447,188.5559,171.5048,0,U,41890,999,52890,.25608E-3,.21512E-3,0
CYGFM03,2016-078H,2026-06-16T20:46:50.149344,15.60098311,.0006493,34.9390,233.6449,179.3170,180.7564,0,U,41891,999,52892,.28179E-3,.23686E-3,0
