DMSP 5D-3 F16 (USA 172) 
1 28054U 03048A   26168.16973730 -.00000019  00000+0  13945-4 0  9999
2 28054  98.9890 191.9980 0007757 140.2834 306.9694 14.14483195169484
METEOSAT-9 (MSG-2)      
1 28912U 05049B   26167.76518994  .00000116  00000+0  00000+0 0  9997
2 28912   9.3608  54.1728 0001615 343.7501 188.2137  1.00271877  6990
DMSP 5D-3 F17 (USA 191) 
1 29522U 06050A   26168.16969631 -.00000009  00000+0  17673-4 0  9992
2 29522  98.7378 174.7401 0011169  59.4497 300.7777 14.14993061 12422
FENGYUN 3A              
1 32958U 08026A   26167.76539573  .00000050  00000+0  44318-4 0  9998
2 32958  98.6883 108.6064 0009574 124.7763 235.4315 14.19571060935342
GOES 14                 
1 35491U 09033A   26167.78428799 -.00000293  00000+0  00000+0 0  9996
2 35491   1.6895  83.0460 0001742  11.3319 235.0763  1.00110913  6587
DMSP 5D-3 F18 (USA 210) 
1 35951U 09057A   26168.21179067  .00000213  00000+0  13316-3 0  9992
2 35951  98.9037 148.9808 0009895 249.4531 110.5580 14.14896735859592
EWS-G2 (GOES 15)        
1 36411U 10008A   26167.94125012  .00000014  00000+0  00000+0 0  9993
2 36411   1.2775  82.8648 0005411  42.2478 182.6632  1.00275936 59637
COMS 1                  
1 36744U 10032A   26167.95048859  .00000055  00000+0  00000+0 0  9998
2 36744   4.8049  75.3571 0011488  11.7446 234.6783  0.99162509 51082
FENGYUN 3B              
1 37214U 10059A   26168.23713063 -.00000233  00000+0 -96994-4 0  9990
2 37214  98.9617 214.2519 0021908 183.7669 258.0860 14.14840646807432
SUOMI NPP               
1 37849U 11061A   26168.19957133  .00000045  00000+0  42621-4 0  9998
2 37849  98.7953 109.0755 0001534   6.8012 353.3185 14.19517331758442
METEOSAT-10 (MSG-3)     
1 38552U 12035B   26166.90073081 -.00000006  00000+0  00000+0 0  9998
2 38552   4.6688  61.0268 0001452 328.0735 199.6782  1.00276584 50842
METOP-B                 
1 38771U 12049A   26168.18962497  .00000089  00000+0  60599-4 0  9990
2 38771  98.6505 219.6888 0002239  19.7345 340.3919 14.21432760713266
INSAT-3D                
1 39216U 13038B   26167.78177463 -.00000343  00000+0  00000+0 0  9990
2 39216   1.9255  82.5442 0000560 311.3198 282.1305  1.00269313 47071
FENGYUN 3C              
1 39260U 13052A   26168.18516176  .00000061  00000+0  52095-4 0  9990
2 39260  98.4987 142.0600 0015260  27.6290 332.5693 14.15754974658568
METEOR-M 2              
1 40069U 14037A   26168.21599328  .00000222  00000+0  12057-3 0  9999
2 40069  98.5110 143.9536 0006770  44.4406 315.7314 14.21461639619320
HIMAWARI-8              
1 40267U 14060A   26167.78402799 -.00000278  00000+0  00000+0 0  9994
2 40267   0.0158 359.9150 0000992  89.2732 238.7759  1.00271710 42756
FENGYUN 2G              
1 40367U 14090A   26167.77588127 -.00000308  00000+0  00000+0 0  9991
2 40367   5.6375  72.8180 0004095 156.3445  54.8771  1.00272344 41998
METEOSAT-11 (MSG-4)     
1 40732U 15034A   26167.75807976  .00000061  00000+0  00000+0 0  9995
2 40732   3.2002  71.1126 0001751  11.1942 105.2805  1.00280240  7213
ELEKTRO-L 2             
1 41105U 15074A   26167.63786162 -.00000124  00000+0  00000+0 0  9995
2 41105   6.6931  70.5258 0000972 242.2635 167.2330  1.00270425 38506
SENTINEL-3A             
1 41335U 16011A   26168.14642413  .00000085  00000+0  53185-4 0  9991
2 41335  98.6249 235.5307 0001402 102.1879 257.9459 14.26739977538053
INSAT-3DR               
1 41752U 16054A   26167.94998808 -.00000080  00000+0  00000+0 0  9999
2 41752   0.1060  86.3723 0010603 187.4701  47.3357  1.00270883 35810
HIMAWARI-9              
1 41836U 16064A   26167.78402799 -.00000277  00000+0  00000+0 0  9992
2 41836   0.0197 277.3882 0000894 213.8870 196.7861  1.00270813 35208
GOES 16                 
1 41866U 16071A   26167.94925976 -.00000094  00000+0  00000+0 0  9995
2 41866   0.3411  85.5155 0000220 306.0896 110.6458  1.00270988 35100
FENGYUN 4A              
1 41882U 16077A   26167.78064797 -.00000361  00000+0  00000+0 0  9993
2 41882   2.3211  80.2786 0008712 153.4047  76.1551  1.00268694 34926
CYGFM05                 
1 41884U 16078A   26167.60226194  .00018684  00000+0  25356-3 0  9999
2 41884  34.9568 264.4637 0006927 145.3362 214.7815 15.56650505528665
CYGFM04                 
1 41885U 16078B   26167.57468470  .00023651  00000+0  26669-3 0  9999
2 41885  34.9314 232.3673 0006598 189.8115 170.2483 15.61485848528908
CYGFM02                 
1 41886U 16078C   26167.57654184  .00027611  00000+0  27656-3 0  9996
2 41886  34.9393 226.9084 0007626 190.6958 169.3607 15.64470617529076
CYGFM01                 
1 41887U 16078D   26167.97585170  .00021975  00000+0  29036-3 0  9990
2 41887  34.9396 263.0479 0006767 143.1160 217.0031 15.57342309528678
CYGFM08                 
1 41888U 16078E   26167.61573062  .00022367  00000+0  26707-3 0  9997
2 41888  34.9423 245.0304 0008283 171.8547 188.2313 15.59994653528881
CYGFM07                 
1 41890U 16078G   26167.57490553  .00021512  00000+0  25608-3 0  9998
2 41890  34.9435 233.6447 0007030 188.5559 171.5048 15.60091379528903
CYGFM03                 
1 41891U 16078H   26167.86585821  .00023686  00000+0  28179-3 0  9994
2 41891  34.9390 233.6449 0006493 179.3170 180.7564 15.60098311528925
